<?xml version="1.0" encoding="UTF-8"?>
<gpx creator="www.plotaroute.com" version="1.1" schemaLocation="http://www.topografix.com/GPX/1/1 http://www.topografix.com/GPX/1/1/gpx.xsd" xmlns="http://www.topografix.com/GPX/1/1" xmlns:xsi="http://www.w3.org/2001/XMLSchema-instance" xsi:schemaLocation="http://www.topografix.com/GPX/1/1 http://www.topografix.com/GPX/1/1/gpx.xsd http://www.garmin.com/xmlschemas/GpxExtensions/v3 http://www.garmin.com/xmlschemas/GpxExtensionsv3.xsd http://www.garmin.com/xmlschemas/TrackPointExtension/v1 http://www.garmin.com/xmlschemas/TrackPointExtensionv1.xsd http://www.garmin.com/xmlschemas/PowerExtension/v1 http://www.garmin.com/xmlschemas/PowerExtensionv1.xsd http://www.topografix.com/GPX/gpx_style/0/2 http://www.topografix.com/GPX/gpx_style/0/2/gpx_style.xsd" xmlns:gpxtpx="http://www.garmin.com/xmlschemas/TrackPointExtension/v1" xmlns:gpxx="http://www.garmin.com/xmlschemas/GpxExtensions/v3" xmlns:gpxpx="http://www.garmin.com/xmlschemas/PowerExtension/v1" xmlns:gpx_style="http://www.topografix.com/GPX/gpx_style/0/2">
  <metadata>
    <name>Boston Rd</name>
    <desc>Route created on plotaroute.com</desc>
    <author>
      <name>gpx.studio</name>
      <link href="https://gpx.studio"/>
    </author>
  </metadata>
  <trk>
    <name>Boston Rd</name>
    <trkseg>
      <trkpt lat="53.7528" lon="-3.00516">
        <ele>7</ele>
        <time>2026-10-03T00:00:00.000Z</time>
      </trkpt>
      <trkpt lat="53.75339" lon="-3.00727">
        <ele>7</ele>
        <time>2026-10-03T00:01:51.000Z</time>
      </trkpt>
      <trkpt lat="53.75235" lon="-3.00883">
        <ele>7</ele>
        <time>2026-10-03T00:04:11.768Z</time>
      </trkpt>
      <trkpt lat="53.75234" lon="-3.008814">
        <ele>7.04</ele>
        <time>2026-10-03T00:04:13.161Z</time>
      </trkpt>
      <trkpt lat="53.752358" lon="-3.008784">
        <ele>7</ele>
        <time>2026-10-03T00:04:15.720Z</time>
      </trkpt>
      <trkpt lat="53.752836" lon="-3.010143">
        <ele>7</ele>
        <time>2026-10-03T00:05:50.399Z</time>
      </trkpt>
      <trkpt lat="53.752854" lon="-3.010194">
        <ele>7</ele>
        <time>2026-10-03T00:05:53.955Z</time>
      </trkpt>
      <trkpt lat="53.753413" lon="-3.009353">
        <ele>7</ele>
        <time>2026-10-03T00:07:09.717Z</time>
      </trkpt>
      <trkpt lat="53.754093" lon="-3.008283">
        <ele>7</ele>
        <time>2026-10-03T00:08:43.770Z</time>
      </trkpt>
      <trkpt lat="53.754093" lon="-3.008283">
        <ele>7</ele>
        <time>2026-10-03T00:08:43.770Z</time>
      </trkpt>
      <trkpt lat="53.754748" lon="-3.009294">
        <ele>7</ele>
        <time>2026-10-03T00:10:13.566Z</time>
      </trkpt>
      <trkpt lat="53.754733" lon="-3.009316">
        <ele>7</ele>
        <time>2026-10-03T00:10:15.576Z</time>
      </trkpt>
      <trkpt lat="53.75473" lon="-3.00931">
        <ele>7</ele>
        <time>2026-10-03T00:10:15.980Z</time>
      </trkpt>
      <trkpt lat="53.754733" lon="-3.009316">
        <ele>7</ele>
        <time>2026-10-03T00:10:16.384Z</time>
      </trkpt>
      <trkpt lat="53.753857" lon="-3.01063">
        <ele>7</ele>
        <time>2026-10-03T00:11:58.559Z</time>
      </trkpt>
      <trkpt lat="53.753857" lon="-3.01063">
        <ele>7</ele>
        <time>2026-10-03T00:11:58.559Z</time>
      </trkpt>
      <trkpt lat="53.753851" lon="-3.010639">
        <ele>7</ele>
        <time>2026-10-03T00:11:59.258Z</time>
      </trkpt>
      <trkpt lat="53.754084" lon="-3.011349">
        <ele>7</ele>
        <time>2026-10-03T00:12:41.154Z</time>
      </trkpt>
      <trkpt lat="53.754329" lon="-3.012059">
        <ele>7</ele>
        <time>2026-10-03T00:13:23.568Z</time>
      </trkpt>
      <trkpt lat="53.754329" lon="-3.012059">
        <ele>7</ele>
        <time>2026-10-03T00:13:23.568Z</time>
      </trkpt>
      <trkpt lat="53.754329" lon="-3.012059">
        <ele>7</ele>
        <time>2026-10-03T00:13:23.568Z</time>
      </trkpt>
      <trkpt lat="53.754345" lon="-3.012106">
        <ele>7</ele>
        <time>2026-10-03T00:13:26.297Z</time>
      </trkpt>
      <trkpt lat="53.755021" lon="-3.010676">
        <ele>7</ele>
        <time>2026-10-03T00:14:58.456Z</time>
      </trkpt>
      <trkpt lat="53.755298" lon="-3.010112">
        <ele>7</ele>
        <time>2026-10-03T00:15:35.362Z</time>
      </trkpt>
      <trkpt lat="53.75530194351679" lon="-3.0101179486948166">
        <ele>6.999777201822084</ele>
        <time>2026-10-03T00:15:35.811Z</time>
      </trkpt>
      <trkpt lat="53.755829" lon="-3.010913">
        <ele>6.97</ele>
        <time>2026-10-03T00:16:35.936Z</time>
      </trkpt>
      <trkpt lat="53.755809" lon="-3.010884">
        <ele>7</ele>
        <time>2026-10-03T00:16:38.178Z</time>
      </trkpt>
      <trkpt lat="53.754674" lon="-3.0131">
        <ele>7</ele>
        <time>2026-10-03T00:19:05.754Z</time>
      </trkpt>
      <trkpt lat="53.754669" lon="-3.013083">
        <ele>7</ele>
        <time>2026-10-03T00:19:06.709Z</time>
      </trkpt>
      <trkpt lat="53.75465" lon="-3.0131">
        <ele>7</ele>
        <time>2026-10-03T00:19:08.538Z</time>
      </trkpt>
      <trkpt lat="53.755" lon="-3.01411">
        <ele>7</ele>
        <time>2026-10-03T00:19:57.071Z</time>
      </trkpt>
      <trkpt lat="53.755" lon="-3.01411">
        <ele>7</ele>
        <time>2026-10-03T00:19:57.071Z</time>
      </trkpt>
      <trkpt lat="53.75616" lon="-3.01761">
        <ele>7</ele>
        <time>2026-10-03T00:23:07.071Z</time>
      </trkpt>
      <trkpt lat="53.758" lon="-3.01404">
        <ele>6</ele>
        <time>2026-10-03T00:26:40.506Z</time>
      </trkpt>
      <trkpt lat="53.757993" lon="-3.014052">
        <ele>7</ele>
        <time>2026-10-03T00:26:41.265Z</time>
      </trkpt>
      <trkpt lat="53.757446" lon="-3.013208">
        <ele>7</ele>
        <time>2026-10-03T00:27:37.701Z</time>
      </trkpt>
      <trkpt lat="53.757434" lon="-3.01323">
        <ele>7</ele>
        <time>2026-10-03T00:27:39.500Z</time>
      </trkpt>
      <trkpt lat="53.757434" lon="-3.01323">
        <ele>7</ele>
        <time>2026-10-03T00:27:39.500Z</time>
      </trkpt>
      <trkpt lat="53.75626" lon="-3.015448">
        <ele>7</ele>
        <time>2026-10-03T00:30:32.651Z</time>
      </trkpt>
      <trkpt lat="53.75626" lon="-3.015448">
        <ele>7</ele>
        <time>2026-10-03T00:30:32.651Z</time>
      </trkpt>
      <trkpt lat="53.756268" lon="-3.015431">
        <ele>7</ele>
        <time>2026-10-03T00:30:33.914Z</time>
      </trkpt>
      <trkpt lat="53.75551490699437" lon="-3.013165775512034">
        <ele>7</ele>
        <time>2026-10-03T00:33:05.069Z</time>
      </trkpt>
      <trkpt lat="53.755508" lon="-3.013145">
        <ele>7</ele>
        <time>2026-10-03T00:33:06.456Z</time>
      </trkpt>
      <trkpt lat="53.756041" lon="-3.012074">
        <ele>7</ele>
        <time>2026-10-03T00:34:27.880Z</time>
      </trkpt>
      <trkpt lat="53.756309" lon="-3.011584">
        <ele>6.36</ele>
        <time>2026-10-03T00:35:06.705Z</time>
      </trkpt>
      <trkpt lat="53.757323" lon="-3.009629">
        <ele>7</ele>
        <time>2026-10-03T00:37:37.968Z</time>
      </trkpt>
      <trkpt lat="53.757337" lon="-3.009649">
        <ele>7</ele>
        <time>2026-10-03T00:37:39.779Z</time>
      </trkpt>
      <trkpt lat="53.757337" lon="-3.009649">
        <ele>7</ele>
        <time>2026-10-03T00:37:39.779Z</time>
      </trkpt>
      <trkpt lat="53.757789" lon="-3.010338">
        <ele>7</ele>
        <time>2026-10-03T00:38:39.931Z</time>
      </trkpt>
      <trkpt lat="53.757778" lon="-3.010359">
        <ele>7</ele>
        <time>2026-10-03T00:38:41.570Z</time>
      </trkpt>
      <trkpt lat="53.756759" lon="-3.012278">
        <ele>7</ele>
        <time>2026-10-03T00:41:12.328Z</time>
      </trkpt>
      <trkpt lat="53.756778" lon="-3.012306">
        <ele>7</ele>
        <time>2026-10-03T00:41:14.819Z</time>
      </trkpt>
      <trkpt lat="53.756778" lon="-3.012306">
        <ele>7</ele>
        <time>2026-10-03T00:41:14.819Z</time>
      </trkpt>
      <trkpt lat="53.757257" lon="-3.012998">
        <ele>7</ele>
        <time>2026-10-03T00:42:17.110Z</time>
      </trkpt>
      <trkpt lat="53.757270871400216" lon="-3.01297163488489">
        <ele>6.999999999999999</ele>
        <time>2026-10-03T00:42:19.172Z</time>
      </trkpt>
      <trkpt lat="53.758284" lon="-3.011046">
        <ele>7</ele>
        <time>2026-10-03T00:44:49.833Z</time>
      </trkpt>
      <trkpt lat="53.75828400000001" lon="-3.011046">
        <ele>7</ele>
        <time>2026-10-03T00:44:49.833Z</time>
      </trkpt>
      <trkpt lat="53.758601" lon="-3.011561">
        <ele>7</ele>
        <time>2026-10-03T00:45:33.285Z</time>
      </trkpt>
      <trkpt lat="53.759294" lon="-3.012554">
        <ele>7.01</ele>
        <time>2026-10-03T00:47:03.073Z</time>
      </trkpt>
      <trkpt lat="53.759294" lon="-3.012554">
        <ele>7.01</ele>
        <time>2026-10-03T00:47:03.073Z</time>
      </trkpt>
      <trkpt lat="53.759384" lon="-3.012391">
        <ele>7</ele>
        <time>2026-10-03T00:47:16.108Z</time>
      </trkpt>
      <trkpt lat="53.760284" lon="-3.01052">
        <ele>8</ele>
        <time>2026-10-03T00:49:37.082Z</time>
      </trkpt>
      <trkpt lat="53.760741" lon="-3.00932">
        <ele>8</ele>
        <time>2026-10-03T00:51:00.506Z</time>
      </trkpt>
      <trkpt lat="53.760741" lon="-3.00932">
        <ele>8</ele>
        <time>2026-10-03T00:51:00.506Z</time>
      </trkpt>
      <trkpt lat="53.758574" lon="-3.006639">
        <ele>7</ele>
        <time>2026-10-03T00:52:37.370Z</time>
      </trkpt>
      <trkpt lat="53.75858838005868" lon="-3.006599205184824">
        <ele>7</ele>
        <time>2026-10-03T00:52:39.591Z</time>
      </trkpt>
      <trkpt lat="53.75915" lon="-3.005045">
        <ele>7</ele>
        <time>2026-10-03T00:54:06.370Z</time>
      </trkpt>
      <trkpt lat="53.757911" lon="-3.003527">
        <ele>7</ele>
        <time>2026-10-03T00:56:08.370Z</time>
      </trkpt>
      <trkpt lat="53.756417" lon="-3.005827">
        <ele>7</ele>
        <time>2026-10-03T00:58:50.370Z</time>
      </trkpt>
      <trkpt lat="53.75641450636339" lon="-3.0058221579871702">
        <ele>7</ele>
        <time>2026-10-03T00:58:50.705Z</time>
      </trkpt>
      <trkpt lat="53.756108" lon="-3.005227">
        <ele>7</ele>
        <time>2026-10-03T00:59:31.962Z</time>
      </trkpt>
    </trkseg>
  </trk>
</gpx>
