<?xml version="1.0" encoding="UTF-8" standalone="no" ?>
<gpx xmlns="http://www.topografix.com/GPX/1/1" creator="www.plotaroute.com" version="1.1"  xmlns:xsi="http://www.w3.org/2001/XMLSchema-instance" xsi:schemaLocation="http://www.topografix.com/GPX/1/1 http://www.topografix.com/GPX/1/1/gpx.xsd">
<metadata>
<desc>Route created on plotaroute.com</desc>
</metadata>
<rte>
<name>Caryl Rd</name>
<rtept lat="53.760616" lon="-3.029065">
<ele>10</ele>
<time>2026-10-03T00:00:24Z</time>
<name>Turn left </name>
<cmt>Turn left onto St Leonard&#39;s Road East</cmt>
<desc>Turn left onto St Leonard&#39;s Road East</desc>
<sym>Flag, Blue</sym>
</rtept>
<rtept lat="53.760803" lon="-3.027886">
<ele>10</ele>
<time>2026-10-03T00:01:23Z</time>
<name>Turn left </name>
<cmt>Turn left onto Rydal Road</cmt>
<desc>Turn left onto Rydal Road</desc>
<sym>Flag, Blue</sym>
</rtept>
<rtept lat="53.761737" lon="-3.028002">
<ele>10</ele>
<time>2026-10-03T00:02:38Z</time>
<name>Turn left </name>
<cmt>Turn left onto Heeley Road</cmt>
<desc>Turn left onto Heeley Road</desc>
<sym>Flag, Blue</sym>
</rtept>
<rtept lat="53.76129" lon="-3.04131">
<ele>8</ele>
<time>2026-10-03T00:48:32Z</time>
<name>FINISH</name>
<cmt>FINISH</cmt>
<desc>FINISH</desc>
<sym>Flag, Blue</sym>
</rtept>
</rte>
</gpx>