<?xml version="1.0" encoding="UTF-8"?>
<gpx creator="www.plotaroute.com" version="1.1" schemaLocation="http://www.topografix.com/GPX/1/1 http://www.topografix.com/GPX/1/1/gpx.xsd" xmlns="http://www.topografix.com/GPX/1/1" xmlns:xsi="http://www.w3.org/2001/XMLSchema-instance" xsi:schemaLocation="http://www.topografix.com/GPX/1/1 http://www.topografix.com/GPX/1/1/gpx.xsd http://www.garmin.com/xmlschemas/GpxExtensions/v3 http://www.garmin.com/xmlschemas/GpxExtensionsv3.xsd http://www.garmin.com/xmlschemas/TrackPointExtension/v1 http://www.garmin.com/xmlschemas/TrackPointExtensionv1.xsd http://www.garmin.com/xmlschemas/PowerExtension/v1 http://www.garmin.com/xmlschemas/PowerExtensionv1.xsd http://www.topografix.com/GPX/gpx_style/0/2 http://www.topografix.com/GPX/gpx_style/0/2/gpx_style.xsd" xmlns:gpxtpx="http://www.garmin.com/xmlschemas/TrackPointExtension/v1" xmlns:gpxx="http://www.garmin.com/xmlschemas/GpxExtensions/v3" xmlns:gpxpx="http://www.garmin.com/xmlschemas/PowerExtension/v1" xmlns:gpx_style="http://www.topografix.com/GPX/gpx_style/0/2">
  <metadata>
    <name>Fairlawn Road</name>
    <desc>Route created on plotaroute.com</desc>
    <author>
      <name>gpx.studio</name>
      <link href="https://gpx.studio"/>
    </author>
  </metadata>
  <trk>
    <name>Fairlawn Road</name>
    <trkseg>
      <trkpt lat="53.73616" lon="-2.979018">
        <ele>8.06</ele>
        <time>2026-10-03T00:00:00.000Z</time>
      </trkpt>
      <trkpt lat="53.737155" lon="-2.978409">
        <ele>8.63</ele>
        <time>2026-10-03T00:01:46.977Z</time>
      </trkpt>
      <trkpt lat="53.73735" lon="-2.979132">
        <ele>8.85</ele>
        <time>2026-10-03T00:02:35.118Z</time>
      </trkpt>
      <trkpt lat="53.73735" lon="-2.979132">
        <ele>8.85</ele>
        <time>2026-10-03T00:02:35.118Z</time>
      </trkpt>
      <trkpt lat="53.737489" lon="-2.979644">
        <ele>9</ele>
        <time>2026-10-03T00:03:09.248Z</time>
      </trkpt>
      <trkpt lat="53.736379" lon="-2.980416">
        <ele>8.06</ele>
        <time>2026-10-03T00:05:12.187Z</time>
      </trkpt>
      <trkpt lat="53.736539" lon="-2.981109">
        <ele>8.01</ele>
        <time>2026-10-03T00:05:56.271Z</time>
      </trkpt>
      <trkpt lat="53.736539" lon="-2.981109">
        <ele>8.01</ele>
        <time>2026-10-03T00:05:56.271Z</time>
      </trkpt>
      <trkpt lat="53.736683" lon="-2.981731">
        <ele>8</ele>
        <time>2026-10-03T00:06:35.853Z</time>
      </trkpt>
      <trkpt lat="53.737972" lon="-2.980889">
        <ele>9</ele>
        <time>2026-10-03T00:08:54.296Z</time>
      </trkpt>
      <trkpt lat="53.738236" lon="-2.981465">
        <ele>9</ele>
        <time>2026-10-03T00:09:37.476Z</time>
      </trkpt>
      <trkpt lat="53.738439" lon="-2.981911">
        <ele>9</ele>
        <time>2026-10-03T00:10:10.824Z</time>
      </trkpt>
      <trkpt lat="53.738425" lon="-2.981996">
        <ele>9</ele>
        <time>2026-10-03T00:10:16.052Z</time>
      </trkpt>
      <trkpt lat="53.738442" lon="-2.982081">
        <ele>9</ele>
        <time>2026-10-03T00:10:21.369Z</time>
      </trkpt>
      <trkpt lat="53.737006" lon="-2.983065">
        <ele>9</ele>
        <time>2026-10-03T00:12:56.603Z</time>
      </trkpt>
      <trkpt lat="53.737178" lon="-2.98375">
        <ele>9</ele>
        <time>2026-10-03T00:13:40.701Z</time>
      </trkpt>
      <trkpt lat="53.737178" lon="-2.98375">
        <ele>9</ele>
        <time>2026-10-03T00:13:40.701Z</time>
      </trkpt>
      <trkpt lat="53.737337" lon="-2.98438">
        <ele>9</ele>
        <time>2026-10-03T00:14:21.290Z</time>
      </trkpt>
      <trkpt lat="53.738907" lon="-2.983345">
        <ele>9.43</ele>
        <time>2026-10-03T00:17:13.754Z</time>
      </trkpt>
      <trkpt lat="53.739134" lon="-2.983983">
        <ele>9</ele>
        <time>2026-10-03T00:17:58.823Z</time>
      </trkpt>
      <trkpt lat="53.739318" lon="-2.984638">
        <ele>9</ele>
        <time>2026-10-03T00:18:42.716Z</time>
      </trkpt>
      <trkpt lat="53.74025" lon="-2.988506">
        <ele>9</ele>
        <time>2026-10-03T00:22:55.538Z</time>
      </trkpt>
      <trkpt lat="53.740252" lon="-2.988725">
        <ele>9</ele>
        <time>2026-10-03T00:23:08.795Z</time>
      </trkpt>
      <trkpt lat="53.740233" lon="-2.988818">
        <ele>9</ele>
        <time>2026-10-03T00:23:14.750Z</time>
      </trkpt>
      <trkpt lat="53.740328" lon="-2.988976">
        <ele>9</ele>
        <time>2026-10-03T00:23:28.388Z</time>
      </trkpt>
      <trkpt lat="53.740425" lon="-2.989475">
        <ele>8.49</ele>
        <time>2026-10-03T00:24:00.182Z</time>
      </trkpt>
      <trkpt lat="53.740034" lon="-2.989757">
        <ele>9</ele>
        <time>2026-10-03T00:24:43.687Z</time>
      </trkpt>
      <trkpt lat="53.740226" lon="-2.990541">
        <ele>9</ele>
        <time>2026-10-03T00:25:35.051Z</time>
      </trkpt>
      <trkpt lat="53.740188" lon="-2.990567">
        <ele>9</ele>
        <time>2026-10-03T00:25:39.246Z</time>
      </trkpt>
      <trkpt lat="53.740188" lon="-2.990567">
        <ele>9</ele>
        <time>2026-10-03T00:25:39.246Z</time>
      </trkpt>
      <trkpt lat="53.740188" lon="-2.990567">
        <ele>9</ele>
        <time>2026-10-03T00:25:39.246Z</time>
      </trkpt>
      <trkpt lat="53.739579" lon="-2.99098">
        <ele>9</ele>
        <time>2026-10-03T00:26:44.772Z</time>
      </trkpt>
      <trkpt lat="53.739064" lon="-2.991346">
        <ele>9.93</ele>
        <time>2026-10-03T00:27:40.560Z</time>
      </trkpt>
      <trkpt lat="53.739027" lon="-2.991372">
        <ele>10</ele>
        <time>2026-10-03T00:27:44.561Z</time>
      </trkpt>
      <trkpt lat="53.739328" lon="-2.992611">
        <ele>9.05</ele>
        <time>2026-10-03T00:29:03.675Z</time>
      </trkpt>
      <trkpt lat="53.73933" lon="-2.99261">
        <ele>9</ele>
        <time>2026-10-03T00:29:03.881Z</time>
      </trkpt>
      <trkpt lat="53.739328" lon="-2.992611">
        <ele>9.05</ele>
        <time>2026-10-03T00:29:04.087Z</time>
      </trkpt>
      <trkpt lat="53.739342" lon="-2.99267">
        <ele>9</ele>
        <time>2026-10-03T00:29:07.806Z</time>
      </trkpt>
      <trkpt lat="53.740548" lon="-2.991832">
        <ele>10</ele>
        <time>2026-10-03T00:31:16.793Z</time>
      </trkpt>
      <trkpt lat="53.740618" lon="-2.992121">
        <ele>11</ele>
        <time>2026-10-03T00:31:35.079Z</time>
      </trkpt>
      <trkpt lat="53.740618" lon="-2.992121">
        <ele>11</ele>
        <time>2026-10-03T00:31:35.079Z</time>
      </trkpt>
      <trkpt lat="53.740831" lon="-2.993041">
        <ele>12.53</ele>
        <time>2026-10-03T00:32:32.929Z</time>
      </trkpt>
      <trkpt lat="53.740559" lon="-2.99325">
        <ele>11</ele>
        <time>2026-10-03T00:33:02.508Z</time>
      </trkpt>
      <trkpt lat="53.740559" lon="-2.99325">
        <ele>11</ele>
        <time>2026-10-03T00:33:02.508Z</time>
      </trkpt>
      <trkpt lat="53.740702" lon="-2.993905">
        <ele>9.48</ele>
        <time>2026-10-03T00:36:59.693Z</time>
      </trkpt>
      <trkpt lat="53.740855" lon="-2.994554">
        <ele>9</ele>
        <time>2026-10-03T00:37:40.595Z</time>
      </trkpt>
      <trkpt lat="53.741519" lon="-2.994092">
        <ele>9</ele>
        <time>2026-10-03T00:38:51.669Z</time>
      </trkpt>
      <trkpt lat="53.741532" lon="-2.994083">
        <ele>9</ele>
        <time>2026-10-03T00:38:53.059Z</time>
      </trkpt>
      <trkpt lat="53.742195" lon="-2.996818">
        <ele>9</ele>
        <time>2026-10-03T00:41:46.100Z</time>
      </trkpt>
      <trkpt lat="53.742262" lon="-2.997024">
        <ele>9</ele>
        <time>2026-10-03T00:41:59.862Z</time>
      </trkpt>
      <trkpt lat="53.742319" lon="-2.997126">
        <ele>9</ele>
        <time>2026-10-03T00:42:08.077Z</time>
      </trkpt>
      <trkpt lat="53.743206" lon="-3.000762">
        <ele>9</ele>
        <time>2026-10-03T00:45:58.330Z</time>
      </trkpt>
      <trkpt lat="53.74321" lon="-3.00076">
        <ele>9</ele>
        <time>2026-10-03T00:45:58.742Z</time>
      </trkpt>
      <trkpt lat="53.74248" lon="-3.00126">
        <ele>9</ele>
        <time>2026-10-03T00:47:16.704Z</time>
      </trkpt>
      <trkpt lat="53.74156712495233" lon="-2.9975588870349896">
        <ele>9</ele>
        <time>2026-10-03T00:50:27.217Z</time>
      </trkpt>
      <trkpt lat="53.74156" lon="-2.99753">
        <ele>9</ele>
        <time>2026-10-03T00:50:28.704Z</time>
      </trkpt>
      <trkpt lat="53.73988" lon="-2.99868">
        <ele>8</ele>
        <time>2026-10-03T00:53:12.426Z</time>
      </trkpt>
      <trkpt lat="53.73988" lon="-2.99868">
        <ele>8</ele>
        <time>2026-10-03T00:53:12.426Z</time>
      </trkpt>
      <trkpt lat="53.740171" lon="-2.999945">
        <ele>9</ele>
        <time>2026-10-03T00:54:24.942Z</time>
      </trkpt>
      <trkpt lat="53.740467" lon="-3.001192">
        <ele>8.06</ele>
        <time>2026-10-03T00:55:36.729Z</time>
      </trkpt>
      <trkpt lat="53.74048832608847" lon="-3.001177441600122">
        <ele>8.084657502609156</ele>
        <time>2026-10-03T00:55:38.806Z</time>
      </trkpt>
      <trkpt lat="53.74128" lon="-3.000637">
        <ele>9</ele>
        <time>2026-10-03T00:56:55.928Z</time>
      </trkpt>
      <trkpt lat="53.74128" lon="-3.000637">
        <ele>9</ele>
        <time>2026-10-03T00:56:55.928Z</time>
      </trkpt>
      <trkpt lat="53.74128" lon="-3.000637">
        <ele>9</ele>
        <time>2026-10-03T00:56:55.928Z</time>
      </trkpt>
      <trkpt lat="53.741567" lon="-3.001869">
        <ele>9</ele>
        <time>2026-10-03T00:58:06.394Z</time>
      </trkpt>
      <trkpt lat="53.741525" lon="-3.001893">
        <ele>8.97</ele>
        <time>2026-10-03T00:58:10.383Z</time>
      </trkpt>
      <trkpt lat="53.739511" lon="-3.003049">
        <ele>7.56</ele>
        <time>2026-10-03T01:01:21.761Z</time>
      </trkpt>
      <trkpt lat="53.739504" lon="-3.002946">
        <ele>7.51</ele>
        <time>2026-10-03T01:01:27.278Z</time>
      </trkpt>
      <trkpt lat="53.739504" lon="-3.002946">
        <ele>7.51</ele>
        <time>2026-10-03T01:01:27.278Z</time>
      </trkpt>
      <trkpt lat="53.739613" lon="-3.004336">
        <ele>7.56</ele>
        <time>2026-10-03T01:02:57.101Z</time>
      </trkpt>
      <trkpt lat="53.739619" lon="-3.004333">
        <ele>7.56</ele>
        <time>2026-10-03T01:02:57.629Z</time>
      </trkpt>
      <trkpt lat="53.73962" lon="-3.00434">
        <ele>6</ele>
        <time>2026-10-03T01:02:57.988Z</time>
      </trkpt>
      <trkpt lat="53.74184446771471" lon="-3.003148320867124">
        <ele>8.979197882417042</ele>
        <time>2026-10-03T01:08:46.263Z</time>
      </trkpt>
      <trkpt lat="53.74186" lon="-3.00314">
        <ele>9</ele>
        <time>2026-10-03T01:08:48.695Z</time>
      </trkpt>
      <trkpt lat="53.74219" lon="-3.00448">
        <ele>9</ele>
        <time>2026-10-03T01:09:57.695Z</time>
      </trkpt>
      <trkpt lat="53.73992" lon="-3.00559">
        <ele>7</ele>
        <time>2026-10-03T01:13:07.695Z</time>
      </trkpt>
    </trkseg>
  </trk>
</gpx>
