<?xml version="1.0" encoding="UTF-8"?>
<gpx creator="www.plotaroute.com" version="1.1" schemaLocation="http://www.topografix.com/GPX/1/1 http://www.topografix.com/GPX/1/1/gpx.xsd" xmlns="http://www.topografix.com/GPX/1/1" xmlns:xsi="http://www.w3.org/2001/XMLSchema-instance" xsi:schemaLocation="http://www.topografix.com/GPX/1/1 http://www.topografix.com/GPX/1/1/gpx.xsd http://www.garmin.com/xmlschemas/GpxExtensions/v3 http://www.garmin.com/xmlschemas/GpxExtensionsv3.xsd http://www.garmin.com/xmlschemas/TrackPointExtension/v1 http://www.garmin.com/xmlschemas/TrackPointExtensionv1.xsd http://www.garmin.com/xmlschemas/PowerExtension/v1 http://www.garmin.com/xmlschemas/PowerExtensionv1.xsd http://www.topografix.com/GPX/gpx_style/0/2 http://www.topografix.com/GPX/gpx_style/0/2/gpx_style.xsd" xmlns:gpxtpx="http://www.garmin.com/xmlschemas/TrackPointExtension/v1" xmlns:gpxx="http://www.garmin.com/xmlschemas/GpxExtensions/v3" xmlns:gpxpx="http://www.garmin.com/xmlschemas/PowerExtension/v1" xmlns:gpx_style="http://www.topografix.com/GPX/gpx_style/0/2">
  <metadata>
    <name>Smithy Lane</name>
    <desc>Route created on plotaroute.com</desc>
    <author>
      <name>gpx.studio</name>
      <link href="https://gpx.studio"/>
    </author>
  </metadata>
  <trk>
    <name>Smithy Lane</name>
    <trkseg>
      <trkpt lat="53.748623" lon="-2.996561">
        <ele>7</ele>
        <time>2026-10-03T00:25:32.000Z</time>
      </trkpt>
      <trkpt lat="53.749075" lon="-2.997713">
        <ele>7</ele>
        <time>2026-10-03T00:27:04.751Z</time>
      </trkpt>
      <trkpt lat="53.749186" lon="-2.99785">
        <ele>7</ele>
        <time>2026-10-03T00:27:20.341Z</time>
      </trkpt>
      <trkpt lat="53.749278" lon="-2.99808">
        <ele>7</ele>
        <time>2026-10-03T00:27:38.969Z</time>
      </trkpt>
      <trkpt lat="53.749328" lon="-2.99837">
        <ele>7</ele>
        <time>2026-10-03T00:27:59.234Z</time>
      </trkpt>
      <trkpt lat="53.749902" lon="-2.999827">
        <ele>7</ele>
        <time>2026-10-03T00:29:56.687Z</time>
      </trkpt>
      <trkpt lat="53.75006661554584" lon="-2.9996307607354096">
        <ele>7</ele>
        <time>2026-10-03T00:30:19.537Z</time>
      </trkpt>
      <trkpt lat="53.752005" lon="-2.99732">
        <ele>7</ele>
        <time>2026-10-03T00:34:48.599Z</time>
      </trkpt>
      <trkpt lat="53.752725" lon="-2.996058">
        <ele>6.75</ele>
        <time>2026-10-03T00:36:46.242Z</time>
      </trkpt>
      <trkpt lat="53.752844" lon="-2.99585">
        <ele>7</ele>
        <time>2026-10-03T00:37:05.657Z</time>
      </trkpt>
      <trkpt lat="53.751682" lon="-2.993931">
        <ele>6</ele>
        <time>2026-10-03T00:40:09.918Z</time>
      </trkpt>
      <trkpt lat="53.751461" lon="-2.993681">
        <ele>6.98</ele>
        <time>2026-10-03T00:40:40.083Z</time>
      </trkpt>
      <trkpt lat="53.749594" lon="-2.993067">
        <ele>7</ele>
        <time>2026-10-03T00:44:15.870Z</time>
      </trkpt>
      <trkpt lat="53.749375" lon="-2.993116">
        <ele>7</ele>
        <time>2026-10-03T00:44:40.933Z</time>
      </trkpt>
      <trkpt lat="53.74928265381697" lon="-2.9932106263356952">
        <ele>7</ele>
        <time>2026-10-03T00:44:52.896Z</time>
      </trkpt>
      <trkpt lat="53.749283" lon="-2.993211">
        <ele>7</ele>
        <time>2026-10-03T00:44:52.941Z</time>
      </trkpt>
      <trkpt lat="53.749213" lon="-2.993282">
        <ele>7</ele>
        <time>2026-10-03T00:45:01.984Z</time>
      </trkpt>
      <trkpt lat="53.74912" lon="-2.993467">
        <ele>7</ele>
        <time>2026-10-03T00:45:17.892Z</time>
      </trkpt>
      <trkpt lat="53.749199" lon="-2.993629">
        <ele>7</ele>
        <time>2026-10-03T00:45:31.649Z</time>
      </trkpt>
      <trkpt lat="53.749467" lon="-2.994251">
        <ele>7</ele>
        <time>2026-10-03T00:46:22.069Z</time>
      </trkpt>
      <trkpt lat="53.750008" lon="-2.995428">
        <ele>7</ele>
        <time>2026-10-03T00:47:59.735Z</time>
      </trkpt>
      <trkpt lat="53.750289" lon="-2.996217">
        <ele>7</ele>
        <time>2026-10-03T00:49:00.077Z</time>
      </trkpt>
      <trkpt lat="53.750423" lon="-2.996826">
        <ele>7</ele>
        <time>2026-10-03T00:49:42.647Z</time>
      </trkpt>
      <trkpt lat="53.75043" lon="-2.996963">
        <ele>7</ele>
        <time>2026-10-03T00:49:51.649Z</time>
      </trkpt>
      <trkpt lat="53.75043" lon="-2.996963">
        <ele>7</ele>
        <time>2026-10-03T00:49:51.649Z</time>
      </trkpt>
      <trkpt lat="53.750435" lon="-2.997037">
        <ele>7</ele>
        <time>2026-10-03T00:49:56.524Z</time>
      </trkpt>
      <trkpt lat="53.749897" lon="-2.997137">
        <ele>7</ele>
        <time>2026-10-03T00:50:56.446Z</time>
      </trkpt>
      <trkpt lat="53.749633" lon="-2.997317">
        <ele>7</ele>
        <time>2026-10-03T00:51:27.858Z</time>
      </trkpt>
      <trkpt lat="53.749633" lon="-2.997317">
        <ele>7</ele>
        <time>2026-10-03T00:51:27.858Z</time>
      </trkpt>
      <trkpt lat="53.749597" lon="-2.997342">
        <ele>7</ele>
        <time>2026-10-03T00:51:32.152Z</time>
      </trkpt>
      <trkpt lat="53.74936" lon="-2.996763">
        <ele>7</ele>
        <time>2026-10-03T00:52:18.104Z</time>
      </trkpt>
      <trkpt lat="53.749185" lon="-2.99569">
        <ele>7</ele>
        <time>2026-10-03T00:53:30.738Z</time>
      </trkpt>
      <trkpt lat="53.74853835707018" lon="-2.9960009227066644">
        <ele>7</ele>
        <time>2026-10-03T00:54:44.927Z</time>
      </trkpt>
      <trkpt lat="53.748507" lon="-2.996016">
        <ele>7</ele>
        <time>2026-10-03T00:54:48.525Z</time>
      </trkpt>
      <trkpt lat="53.748142" lon="-2.994154">
        <ele>7.09</ele>
        <time>2026-10-03T00:56:56.537Z</time>
      </trkpt>
      <trkpt lat="53.747814" lon="-2.992311">
        <ele>7</ele>
        <time>2026-10-03T00:59:02.137Z</time>
      </trkpt>
      <trkpt lat="53.747602" lon="-2.992241">
        <ele>7</ele>
        <time>2026-10-03T00:59:25.713Z</time>
      </trkpt>
      <trkpt lat="53.747602" lon="-2.992241">
        <ele>7</ele>
        <time>2026-10-03T00:59:25.713Z</time>
      </trkpt>
      <trkpt lat="53.747406" lon="-2.992177">
        <ele>7</ele>
        <time>2026-10-03T00:59:47.501Z</time>
      </trkpt>
      <trkpt lat="53.746858" lon="-2.992469">
        <ele>7</ele>
        <time>2026-10-03T01:00:50.213Z</time>
      </trkpt>
      <trkpt lat="53.747057" lon="-2.993504">
        <ele>7.01</ele>
        <time>2026-10-03T01:02:00.157Z</time>
      </trkpt>
      <trkpt lat="53.747057" lon="-2.993504">
        <ele>7.01</ele>
        <time>2026-10-03T01:02:00.157Z</time>
      </trkpt>
      <trkpt lat="53.747112" lon="-2.993789">
        <ele>7.02</ele>
        <time>2026-10-03T01:02:19.423Z</time>
      </trkpt>
      <trkpt lat="53.746055" lon="-2.994365">
        <ele>7.89</ele>
        <time>2026-10-03T01:04:19.573Z</time>
      </trkpt>
      <trkpt lat="53.746055" lon="-2.994365">
        <ele>7.89</ele>
        <time>2026-10-03T01:04:19.573Z</time>
      </trkpt>
      <trkpt lat="53.745874" lon="-2.994464">
        <ele>8</ele>
        <time>2026-10-03T01:04:40.154Z</time>
      </trkpt>
      <trkpt lat="53.74563" lon="-2.993155">
        <ele>8</ele>
        <time>2026-10-03T01:06:07.967Z</time>
      </trkpt>
      <trkpt lat="53.746522" lon="-2.992656">
        <ele>7.27</ele>
        <time>2026-10-03T01:07:49.618Z</time>
      </trkpt>
      <trkpt lat="53.746858" lon="-2.992469">
        <ele>7</ele>
        <time>2026-10-03T01:08:27.888Z</time>
      </trkpt>
      <trkpt lat="53.746601" lon="-2.991104">
        <ele>7</ele>
        <time>2026-10-03T01:09:59.540Z</time>
      </trkpt>
      <trkpt lat="53.746423" lon="-2.991203">
        <ele>7.15</ele>
        <time>2026-10-03T01:10:19.813Z</time>
      </trkpt>
      <trkpt lat="53.746423" lon="-2.991203">
        <ele>7.15</ele>
        <time>2026-10-03T01:10:19.813Z</time>
      </trkpt>
      <trkpt lat="53.745375" lon="-2.991786">
        <ele>8</ele>
        <time>2026-10-03T01:12:19.696Z</time>
      </trkpt>
      <trkpt lat="53.744744" lon="-2.992156">
        <ele>8</ele>
        <time>2026-10-03T01:13:31.696Z</time>
      </trkpt>
      <trkpt lat="53.744212" lon="-2.99245">
        <ele>8.23</ele>
        <time>2026-10-03T01:14:32.035Z</time>
      </trkpt>
      <trkpt lat="53.744202" lon="-2.992399">
        <ele>8.21</ele>
        <time>2026-10-03T01:14:35.460Z</time>
      </trkpt>
      <trkpt lat="53.744201424136406" lon="-2.992399154501965">
        <ele>8.214407404613715</ele>
        <time>2026-10-03T01:14:35.522Z</time>
      </trkpt>
      <trkpt lat="53.744056" lon="-2.9917">
        <ele>8</ele>
        <time>2026-10-03T01:15:22.750Z</time>
      </trkpt>
      <trkpt lat="53.743887" lon="-2.990955">
        <ele>8</ele>
        <time>2026-10-03T01:16:13.617Z</time>
      </trkpt>
      <trkpt lat="53.743508" lon="-2.991214">
        <ele>8</ele>
        <time>2026-10-03T01:16:57.681Z</time>
      </trkpt>
      <trkpt lat="53.743205" lon="-2.989904">
        <ele>8</ele>
        <time>2026-10-03T01:18:27.353Z</time>
      </trkpt>
      <trkpt lat="53.743029" lon="-2.989145">
        <ele>8</ele>
        <time>2026-10-03T01:19:19.326Z</time>
      </trkpt>
      <trkpt lat="53.742696" lon="-2.987607">
        <ele>8</ele>
        <time>2026-10-03T01:21:03.739Z</time>
      </trkpt>
      <trkpt lat="53.742684" lon="-2.987517">
        <ele>8</ele>
        <time>2026-10-03T01:21:09.620Z</time>
      </trkpt>
      <trkpt lat="53.742687" lon="-2.987439">
        <ele>8</ele>
        <time>2026-10-03T01:21:14.603Z</time>
      </trkpt>
      <trkpt lat="53.742698" lon="-2.987371">
        <ele>8</ele>
        <time>2026-10-03T01:21:19.097Z</time>
      </trkpt>
      <trkpt lat="53.742563" lon="-2.987257">
        <ele>8</ele>
        <time>2026-10-03T01:21:35.363Z</time>
      </trkpt>
      <trkpt lat="53.742518" lon="-2.987377">
        <ele>8</ele>
        <time>2026-10-03T01:21:44.421Z</time>
      </trkpt>
      <trkpt lat="53.74248" lon="-2.987443">
        <ele>8</ele>
        <time>2026-10-03T01:21:50.293Z</time>
      </trkpt>
      <trkpt lat="53.741814" lon="-2.987883">
        <ele>8.01</ele>
        <time>2026-10-03T01:23:07.370Z</time>
      </trkpt>
      <trkpt lat="53.74182" lon="-2.98791">
        <ele>7</ele>
        <time>2026-10-03T01:23:08.810Z</time>
      </trkpt>
      <trkpt lat="53.741814" lon="-2.987883">
        <ele>8.01</ele>
        <time>2026-10-03T01:23:10.250Z</time>
      </trkpt>
      <trkpt lat="53.741839" lon="-2.987867">
        <ele>8</ele>
        <time>2026-10-03T01:23:12.506Z</time>
      </trkpt>
      <trkpt lat="53.742028" lon="-2.98867">
        <ele>8</ele>
        <time>2026-10-03T01:23:55.654Z</time>
      </trkpt>
      <trkpt lat="53.742154" lon="-2.989278">
        <ele>8</ele>
        <time>2026-10-03T01:24:27.818Z</time>
      </trkpt>
      <trkpt lat="53.742095" lon="-2.989316">
        <ele>8</ele>
        <time>2026-10-03T01:24:33.147Z</time>
      </trkpt>
      <trkpt lat="53.740971" lon="-2.99005">
        <ele>8</ele>
        <time>2026-10-03T01:26:14.860Z</time>
      </trkpt>
      <trkpt lat="53.740969" lon="-2.990041">
        <ele>8</ele>
        <time>2026-10-03T01:26:15.340Z</time>
      </trkpt>
      <trkpt lat="53.740969" lon="-2.990041">
        <ele>8</ele>
        <time>2026-10-03T01:26:15.340Z</time>
      </trkpt>
      <trkpt lat="53.740969" lon="-2.990041">
        <ele>8</ele>
        <time>2026-10-03T01:26:15.340Z</time>
      </trkpt>
      <trkpt lat="53.741383" lon="-2.991187">
        <ele>8</ele>
        <time>2026-10-03T01:27:22.177Z</time>
      </trkpt>
      <trkpt lat="53.742271" lon="-2.990603">
        <ele>8</ele>
        <time>2026-10-03T01:28:42.360Z</time>
      </trkpt>
      <trkpt lat="53.742452" lon="-2.990479">
        <ele>8</ele>
        <time>2026-10-03T01:28:58.794Z</time>
      </trkpt>
      <trkpt lat="53.74274" lon="-2.991727">
        <ele>9</ele>
        <time>2026-10-03T01:30:05.468Z</time>
      </trkpt>
      <trkpt lat="53.7429" lon="-2.9924">
        <ele>8.13</ele>
        <time>2026-10-03T01:30:41.568Z</time>
      </trkpt>
      <trkpt lat="53.74336111480491" lon="-2.9942815851491043">
        <ele>8.705723249530262</ele>
        <time>2026-10-03T01:32:24.112Z</time>
      </trkpt>
      <trkpt lat="53.743361" lon="-2.994282">
        <ele>8.72</ele>
        <time>2026-10-03T01:32:24.135Z</time>
      </trkpt>
      <trkpt lat="53.743484" lon="-2.994781">
        <ele>8.87</ele>
        <time>2026-10-03T01:32:51.353Z</time>
      </trkpt>
      <trkpt lat="53.743872" lon="-2.99454">
        <ele>9</ele>
        <time>2026-10-03T01:33:26.542Z</time>
      </trkpt>
      <trkpt lat="53.744319" lon="-2.994216">
        <ele>8.59</ele>
        <time>2026-10-03T01:34:07.944Z</time>
      </trkpt>
      <trkpt lat="53.744445" lon="-2.994228">
        <ele>8.49</ele>
        <time>2026-10-03T01:34:20.167Z</time>
      </trkpt>
      <trkpt lat="53.744445" lon="-2.994228">
        <ele>8.49</ele>
        <time>2026-10-03T01:34:20.167Z</time>
      </trkpt>
      <trkpt lat="53.744904" lon="-2.994232">
        <ele>8</ele>
        <time>2026-10-03T01:35:04.626Z</time>
      </trkpt>
      <trkpt lat="53.744954" lon="-2.9943">
        <ele>8</ele>
        <time>2026-10-03T01:35:10.841Z</time>
      </trkpt>
      <trkpt lat="53.744989" lon="-2.994395">
        <ele>8.32</ele>
        <time>2026-10-03T01:35:17.252Z</time>
      </trkpt>
      <trkpt lat="53.745114" lon="-2.995137">
        <ele>8</ele>
        <time>2026-10-03T01:36:01.445Z</time>
      </trkpt>
      <trkpt lat="53.745126" lon="-2.995215">
        <ele>8</ele>
        <time>2026-10-03T01:36:06.061Z</time>
      </trkpt>
      <trkpt lat="53.744738" lon="-2.995417">
        <ele>8.49</ele>
        <time>2026-10-03T01:36:45.383Z</time>
      </trkpt>
      <trkpt lat="53.743795" lon="-2.995983">
        <ele>9.26</ele>
        <time>2026-10-03T01:38:22.305Z</time>
      </trkpt>
      <trkpt lat="53.74407" lon="-2.99649">
        <ele>9.12</ele>
        <time>2026-10-03T01:39:01.712Z</time>
      </trkpt>
      <trkpt lat="53.74407" lon="-2.99649">
        <ele>9.12</ele>
        <time>2026-10-03T01:39:01.712Z</time>
      </trkpt>
      <trkpt lat="53.744296" lon="-2.996906">
        <ele>9</ele>
        <time>2026-10-03T01:39:34.069Z</time>
      </trkpt>
      <trkpt lat="53.74535" lon="-2.996292">
        <ele>8</ele>
        <time>2026-10-03T01:41:19.441Z</time>
      </trkpt>
      <trkpt lat="53.745411" lon="-2.9966">
        <ele>8</ele>
        <time>2026-10-03T01:41:37.597Z</time>
      </trkpt>
    </trkseg>
  </trk>
</gpx>
