<?xml version="1.0" encoding="UTF-8"?>
<gpx creator="www.plotaroute.com" version="1.1" schemaLocation="http://www.topografix.com/GPX/1/1 http://www.topografix.com/GPX/1/1/gpx.xsd" xmlns="http://www.topografix.com/GPX/1/1" xmlns:xsi="http://www.w3.org/2001/XMLSchema-instance" xsi:schemaLocation="http://www.topografix.com/GPX/1/1 http://www.topografix.com/GPX/1/1/gpx.xsd http://www.garmin.com/xmlschemas/GpxExtensions/v3 http://www.garmin.com/xmlschemas/GpxExtensionsv3.xsd http://www.garmin.com/xmlschemas/TrackPointExtension/v1 http://www.garmin.com/xmlschemas/TrackPointExtensionv1.xsd http://www.garmin.com/xmlschemas/PowerExtension/v1 http://www.garmin.com/xmlschemas/PowerExtensionv1.xsd http://www.topografix.com/GPX/gpx_style/0/2 http://www.topografix.com/GPX/gpx_style/0/2/gpx_style.xsd" xmlns:gpxtpx="http://www.garmin.com/xmlschemas/TrackPointExtension/v1" xmlns:gpxx="http://www.garmin.com/xmlschemas/GpxExtensions/v3" xmlns:gpxpx="http://www.garmin.com/xmlschemas/PowerExtension/v1" xmlns:gpx_style="http://www.topografix.com/GPX/gpx_style/0/2">
  <metadata>
    <name>Start  Highbury</name>
    <desc>Route created on plotaroute.com</desc>
    <author>
      <name>gpx.studio</name>
      <link href="https://gpx.studio"/>
    </author>
  </metadata>
  <trk>
    <name>Start  Highbury</name>
    <trkseg>
      <trkpt lat="53.761656" lon="-3.030259">
        <ele>10</ele>
        <time>2026-10-02T00:01:33.000Z</time>
      </trkpt>
      <trkpt lat="53.761479" lon="-3.032621">
        <ele>10</ele>
        <time>2026-10-02T00:03:27.000Z</time>
      </trkpt>
      <trkpt lat="53.762407" lon="-3.032925">
        <ele>10</ele>
        <time>2026-10-02T00:05:19.837Z</time>
      </trkpt>
      <trkpt lat="53.762407" lon="-3.032925">
        <ele>10</ele>
        <time>2026-10-02T00:05:19.837Z</time>
      </trkpt>
      <trkpt lat="53.762413" lon="-3.03274">
        <ele>10</ele>
        <time>2026-10-02T00:05:32.911Z</time>
      </trkpt>
      <trkpt lat="53.763399" lon="-3.033163">
        <ele>9</ele>
        <time>2026-10-02T00:07:34.340Z</time>
      </trkpt>
      <trkpt lat="53.763646" lon="-3.033286">
        <ele>9</ele>
        <time>2026-10-02T00:08:05.076Z</time>
      </trkpt>
      <trkpt lat="53.763821" lon="-3.033338">
        <ele>9</ele>
        <time>2026-10-02T00:08:26.286Z</time>
      </trkpt>
      <trkpt lat="53.76403" lon="-3.033381">
        <ele>9</ele>
        <time>2026-10-02T00:08:51.419Z</time>
      </trkpt>
      <trkpt lat="53.764228" lon="-3.033421">
        <ele>9</ele>
        <time>2026-10-02T00:09:15.223Z</time>
      </trkpt>
      <trkpt lat="53.764398" lon="-3.033477">
        <ele>9</ele>
        <time>2026-10-02T00:09:35.897Z</time>
      </trkpt>
      <trkpt lat="53.76451" lon="-3.03356">
        <ele>9</ele>
        <time>2026-10-02T00:09:50.493Z</time>
      </trkpt>
      <trkpt lat="53.764618" lon="-3.033695">
        <ele>9</ele>
        <time>2026-10-02T00:10:06.522Z</time>
      </trkpt>
      <trkpt lat="53.764673" lon="-3.033791">
        <ele>9</ele>
        <time>2026-10-02T00:10:15.955Z</time>
      </trkpt>
      <trkpt lat="53.764756" lon="-3.033984">
        <ele>9</ele>
        <time>2026-10-02T00:10:32.796Z</time>
      </trkpt>
      <trkpt lat="53.764788" lon="-3.034103">
        <ele>9</ele>
        <time>2026-10-02T00:10:42.021Z</time>
      </trkpt>
      <trkpt lat="53.764886" lon="-3.034759">
        <ele>9</ele>
        <time>2026-10-02T00:11:29.765Z</time>
      </trkpt>
      <trkpt lat="53.764908" lon="-3.034818">
        <ele>9</ele>
        <time>2026-10-02T00:11:34.687Z</time>
      </trkpt>
      <trkpt lat="53.764988" lon="-3.03494">
        <ele>9</ele>
        <time>2026-10-02T00:11:47.544Z</time>
      </trkpt>
      <trkpt lat="53.765039" lon="-3.03498">
        <ele>9</ele>
        <time>2026-10-02T00:11:54.254Z</time>
      </trkpt>
      <trkpt lat="53.765108" lon="-3.035015">
        <ele>9</ele>
        <time>2026-10-02T00:12:02.853Z</time>
      </trkpt>
      <trkpt lat="53.765168" lon="-3.035021">
        <ele>9</ele>
        <time>2026-10-02T00:12:10.027Z</time>
      </trkpt>
      <trkpt lat="53.765256" lon="-3.034983">
        <ele>9</ele>
        <time>2026-10-02T00:12:20.868Z</time>
      </trkpt>
      <trkpt lat="53.765297" lon="-3.034947">
        <ele>9</ele>
        <time>2026-10-02T00:12:26.382Z</time>
      </trkpt>
      <trkpt lat="53.765374" lon="-3.034829">
        <ele>9</ele>
        <time>2026-10-02T00:12:38.784Z</time>
      </trkpt>
      <trkpt lat="53.765421" lon="-3.034684">
        <ele>9</ele>
        <time>2026-10-02T00:12:50.452Z</time>
      </trkpt>
      <trkpt lat="53.765431" lon="-3.034602">
        <ele>9</ele>
        <time>2026-10-02T00:12:56.359Z</time>
      </trkpt>
      <trkpt lat="53.765434" lon="-3.034502">
        <ele>9</ele>
        <time>2026-10-02T00:13:03.424Z</time>
      </trkpt>
      <trkpt lat="53.765423" lon="-3.034309">
        <ele>9</ele>
        <time>2026-10-02T00:13:17.105Z</time>
      </trkpt>
      <trkpt lat="53.765423" lon="-3.034309">
        <ele>9</ele>
        <time>2026-10-02T00:13:17.105Z</time>
      </trkpt>
      <trkpt lat="53.765423" lon="-3.034309">
        <ele>9</ele>
        <time>2026-10-02T00:13:17.119Z</time>
      </trkpt>
      <trkpt lat="53.765417" lon="-3.034183">
        <ele>9</ele>
        <time>2026-10-02T00:13:26.038Z</time>
      </trkpt>
      <trkpt lat="53.765418" lon="-3.033995">
        <ele>9</ele>
        <time>2026-10-02T00:13:39.304Z</time>
      </trkpt>
      <trkpt lat="53.765495" lon="-3.033716">
        <ele>9</ele>
        <time>2026-10-02T00:14:01.030Z</time>
      </trkpt>
      <trkpt lat="53.765531" lon="-3.03364">
        <ele>9</ele>
        <time>2026-10-02T00:14:07.902Z</time>
      </trkpt>
      <trkpt lat="53.765654" lon="-3.033452">
        <ele>9</ele>
        <time>2026-10-02T00:14:27.690Z</time>
      </trkpt>
      <trkpt lat="53.765764" lon="-3.033365">
        <ele>9</ele>
        <time>2026-10-02T00:14:42.185Z</time>
      </trkpt>
      <trkpt lat="53.765849" lon="-3.033258">
        <ele>9</ele>
        <time>2026-10-02T00:14:54.832Z</time>
      </trkpt>
      <trkpt lat="53.765913" lon="-3.033152">
        <ele>9</ele>
        <time>2026-10-02T00:15:05.523Z</time>
      </trkpt>
      <trkpt lat="53.765952" lon="-3.03305">
        <ele>9</ele>
        <time>2026-10-02T00:15:14.094Z</time>
      </trkpt>
      <trkpt lat="53.765978" lon="-3.032949">
        <ele>9</ele>
        <time>2026-10-02T00:15:21.867Z</time>
      </trkpt>
      <trkpt lat="53.76601" lon="-3.03273">
        <ele>9</ele>
        <time>2026-10-02T00:15:37.784Z</time>
      </trkpt>
      <trkpt lat="53.766011" lon="-3.03256">
        <ele>9</ele>
        <time>2026-10-02T00:15:49.779Z</time>
      </trkpt>
      <trkpt lat="53.765967" lon="-3.03231">
        <ele>9</ele>
        <time>2026-10-02T00:16:08.184Z</time>
      </trkpt>
      <trkpt lat="53.765967" lon="-3.03231">
        <ele>9</ele>
        <time>2026-10-02T00:16:08.184Z</time>
      </trkpt>
      <trkpt lat="53.765879" lon="-3.032108">
        <ele>9</ele>
        <time>2026-10-02T00:16:25.890Z</time>
      </trkpt>
      <trkpt lat="53.765744" lon="-3.03195">
        <ele>9</ele>
        <time>2026-10-02T00:16:45.485Z</time>
      </trkpt>
      <trkpt lat="53.765536" lon="-3.031656">
        <ele>9</ele>
        <time>2026-10-02T00:17:17.840Z</time>
      </trkpt>
      <trkpt lat="53.765502" lon="-3.031596">
        <ele>9</ele>
        <time>2026-10-02T00:17:23.704Z</time>
      </trkpt>
      <trkpt lat="53.765414" lon="-3.031362">
        <ele>9</ele>
        <time>2026-10-02T00:17:43.273Z</time>
      </trkpt>
      <trkpt lat="53.765365" lon="-3.031145">
        <ele>9</ele>
        <time>2026-10-02T00:17:59.664Z</time>
      </trkpt>
      <trkpt lat="53.765319" lon="-3.030789">
        <ele>9</ele>
        <time>2026-10-02T00:18:25.377Z</time>
      </trkpt>
      <trkpt lat="53.765313" lon="-3.030584">
        <ele>9</ele>
        <time>2026-10-02T00:18:39.859Z</time>
      </trkpt>
      <trkpt lat="53.76533" lon="-3.03031">
        <ele>9</ele>
        <time>2026-10-02T00:18:59.299Z</time>
      </trkpt>
      <trkpt lat="53.765391" lon="-3.029897">
        <ele>9</ele>
        <time>2026-10-02T00:19:29.336Z</time>
      </trkpt>
      <trkpt lat="53.765489" lon="-3.029365">
        <ele>9</ele>
        <time>2026-10-02T00:20:08.655Z</time>
      </trkpt>
      <trkpt lat="53.765612" lon="-3.029009">
        <ele>9</ele>
        <time>2026-10-02T00:20:37.751Z</time>
      </trkpt>
      <trkpt lat="53.76573" lon="-3.028756">
        <ele>9</ele>
        <time>2026-10-02T00:21:00.491Z</time>
      </trkpt>
      <trkpt lat="53.765841" lon="-3.028559">
        <ele>9</ele>
        <time>2026-10-02T00:21:19.695Z</time>
      </trkpt>
      <trkpt lat="53.765944" lon="-3.028355">
        <ele>9</ele>
        <time>2026-10-02T00:21:38.625Z</time>
      </trkpt>
      <trkpt lat="53.766032" lon="-3.028137">
        <ele>9</ele>
        <time>2026-10-02T00:21:57.252Z</time>
      </trkpt>
      <trkpt lat="53.766076" lon="-3.027973">
        <ele>9</ele>
        <time>2026-10-02T00:22:09.960Z</time>
      </trkpt>
      <trkpt lat="53.766114" lon="-3.027793">
        <ele>9</ele>
        <time>2026-10-02T00:22:23.446Z</time>
      </trkpt>
      <trkpt lat="53.76611992668021" lon="-3.027759296842053">
        <ele>8.98452557530457</ele>
        <time>2026-10-02T00:22:25.927Z</time>
      </trkpt>
      <trkpt lat="53.766497" lon="-3.025615">
        <ele>8</ele>
        <time>2026-10-02T00:25:03.782Z</time>
      </trkpt>
      <trkpt lat="53.76649" lon="-3.02561">
        <ele>8</ele>
        <time>2026-10-02T00:25:04.689Z</time>
      </trkpt>
      <trkpt lat="53.765130421654995" lon="-3.0249107882797097">
        <ele>8</ele>
        <time>2026-10-02T00:27:54.340Z</time>
      </trkpt>
      <trkpt lat="53.76509" lon="-3.02489">
        <ele>8</ele>
        <time>2026-10-02T00:27:59.384Z</time>
      </trkpt>
      <trkpt lat="53.76482" lon="-3.02878">
        <ele>9</ele>
        <time>2026-10-02T00:31:06.384Z</time>
      </trkpt>
      <trkpt lat="53.76398" lon="-3.02833">
        <ele>9</ele>
        <time>2026-10-02T00:32:17.384Z</time>
      </trkpt>
      <trkpt lat="53.76399191634268" lon="-3.0282201371333244">
        <ele>8.970935616266948</ele>
        <time>2026-10-02T00:32:22.673Z</time>
      </trkpt>
      <trkpt lat="53.76439" lon="-3.02455">
        <ele>8</ele>
        <time>2026-10-02T00:35:19.384Z</time>
      </trkpt>
      <trkpt lat="53.76366" lon="-3.02433">
        <ele>9</ele>
        <time>2026-10-02T00:36:18.384Z</time>
      </trkpt>
      <trkpt lat="53.763471349746716" lon="-3.026474171171521">
        <ele>9</ele>
        <time>2026-10-02T00:38:01.451Z</time>
      </trkpt>
      <trkpt lat="53.76325" lon="-3.02899">
        <ele>9</ele>
        <time>2026-10-02T00:40:02.384Z</time>
      </trkpt>
      <trkpt lat="53.76254" lon="-3.0288">
        <ele>10</ele>
        <time>2026-10-02T00:40:59.384Z</time>
      </trkpt>
      <trkpt lat="53.76272" lon="-3.02421">
        <ele>9</ele>
        <time>2026-10-02T00:45:50.657Z</time>
      </trkpt>
      <trkpt lat="53.762729" lon="-3.024211">
        <ele>9.01</ele>
        <time>2026-10-02T00:45:51.623Z</time>
      </trkpt>
      <trkpt lat="53.762733" lon="-3.024117">
        <ele>9</ele>
        <time>2026-10-02T00:45:57.590Z</time>
      </trkpt>
      <trkpt lat="53.762915" lon="-3.024117">
        <ele>9</ele>
        <time>2026-10-02T00:46:17.084Z</time>
      </trkpt>
      <trkpt lat="53.762955" lon="-3.023952">
        <ele>9</ele>
        <time>2026-10-02T00:46:28.376Z</time>
      </trkpt>
      <trkpt lat="53.763375" lon="-3.022595">
        <ele>9</ele>
        <time>2026-10-02T00:48:05.364Z</time>
      </trkpt>
      <trkpt lat="53.763745" lon="-3.022934">
        <ele>9</ele>
        <time>2026-10-02T00:48:50.435Z</time>
      </trkpt>
      <trkpt lat="53.764117" lon="-3.02301">
        <ele>8</ele>
        <time>2026-10-02T00:49:30.571Z</time>
      </trkpt>
      <trkpt lat="53.7643" lon="-3.022392">
        <ele>8</ele>
        <time>2026-10-02T00:50:14.336Z</time>
      </trkpt>
      <trkpt lat="53.764532" lon="-3.021612">
        <ele>8</ele>
        <time>2026-10-02T00:51:09.622Z</time>
      </trkpt>
      <trkpt lat="53.765005" lon="-3.020081">
        <ele>8</ele>
        <time>2026-10-02T00:52:59.000Z</time>
      </trkpt>
      <trkpt lat="53.765632" lon="-3.0194">
        <ele>8</ele>
        <time>2026-10-02T00:54:18.810Z</time>
      </trkpt>
      <trkpt lat="53.766139" lon="-3.020913">
        <ele>8</ele>
        <time>2026-10-02T00:56:08.927Z</time>
      </trkpt>
      <trkpt lat="53.7662" lon="-3.020851">
        <ele>8</ele>
        <time>2026-10-02T00:56:16.549Z</time>
      </trkpt>
      <trkpt lat="53.7662" lon="-3.02085">
        <ele>8</ele>
        <time>2026-10-02T00:56:16.612Z</time>
      </trkpt>
      <trkpt lat="53.767911" lon="-3.019129">
        <ele>8</ele>
        <time>2026-10-02T00:59:49.811Z</time>
      </trkpt>
      <trkpt lat="53.767524" lon="-3.017925">
        <ele>8</ele>
        <time>2026-10-02T01:01:16.581Z</time>
      </trkpt>
      <trkpt lat="53.767533" lon="-3.017723">
        <ele>8</ele>
        <time>2026-10-02T01:01:29.406Z</time>
      </trkpt>
      <trkpt lat="53.767533" lon="-3.017723">
        <ele>8</ele>
        <time>2026-10-02T01:01:29.406Z</time>
      </trkpt>
      <trkpt lat="53.767533" lon="-3.017723">
        <ele>8</ele>
        <time>2026-10-02T01:01:29.476Z</time>
      </trkpt>
      <trkpt lat="53.767621" lon="-3.017331">
        <ele>8</ele>
        <time>2026-10-02T01:01:55.614Z</time>
      </trkpt>
      <trkpt lat="53.76792" lon="-3.016163">
        <ele>8.08</ele>
        <time>2026-10-02T01:03:14.956Z</time>
      </trkpt>
      <trkpt lat="53.767968" lon="-3.015939">
        <ele>8.31</ele>
        <time>2026-10-02T01:03:29.808Z</time>
      </trkpt>
      <trkpt lat="53.76714" lon="-3.0153">
        <ele>8.14</ele>
        <time>2026-10-02T01:05:05.786Z</time>
      </trkpt>
      <trkpt lat="53.766428" lon="-3.014749">
        <ele>8</ele>
        <time>2026-10-02T01:06:28.358Z</time>
      </trkpt>
      <trkpt lat="53.766387" lon="-3.014769">
        <ele>8</ele>
        <time>2026-10-02T01:06:32.858Z</time>
      </trkpt>
      <trkpt lat="53.76608" lon="-3.01597">
        <ele>8</ele>
        <time>2026-10-02T01:07:54.425Z</time>
      </trkpt>
    </trkseg>
  </trk>
</gpx>
